                    "argOfPeriapsis": 312.9694662855086, 
                    "period": 0.6776503485581259, 
                    "ascendingNode": 356.5549812979017, 
                    "eccentricity": 0.0166360770357901, 
                    "periapsisDistance": 0.001461925938578777, 
                    "timeOfPeriapsis": 2456738.481846074, 
                    "semiMajorAxis": 0.001486658097209841, 
                    "apoapsisDistance": 0.001511390255840905, 
                    "meanAnomalyAtEpoch": 255.2784618415292, 
                    "epoch": 2456738.284722222, 
                    "inclination": 2.901904122925688
                }, 
                "momentOfInertia": 0, 
                "symbol": null, 
                "customOrbit": null, 
                "radius": 50, 
                "ring": null, 
                "id": 1000714, 
                "meanDensity": 0, 
                "surfaceGravity": 0, 
                "lightEmitting": false, 
                "name": "Thebe", 
                "flattening": 0.0, 
                "customRotation": null, 
                "type": "Moon",
                "mass" : 4.3E+17
            }, 
            {
                "escapeVelocity": 0, 
                "elements": {
					"periapsisDistance": 0.0008623026110916977,
	               "timeOfPeriapsis": 2456751.5582935805,
	               "semiMajorAxis": 0.0008681489632739751,
	               "apoapsisDistance": 0.0008739953154562526,
	               "argOfPeriapsis": 25.26296780580436,
	               "epoch": 2456751.559027778,
	               "period": 0.302399028467443,
	               "meanAnomalyAtEpoch": 0.8740472829645806,
	               "ascendingNode": 337.4719476131243,
	               "eccentricity": 0.006734273067872584,
	               "inclination": 2.212636577819396
                }, 
                "momentOfInertia": 0, 
                "symbol": null, 
                "customOrbit": null, 
                "radius": 10, 
                "ring": null, 
                "id": 1000715, 
                "meanDensity": 0, 
                "surfaceGravity": 0, 
                "lightEmitting": false, 
                "name": "Adrastea", 
                "flattening": 0.0, 
                "customRotation": null, 
                "type": "Moon",
                "mass" : 2.0E+15
            }, 
            {
                "escapeVelocity": 0, 
                "elements": {
					"periapsisDistance": 0.0008550638890459538,
	               "timeOfPeriapsis": 2456751.5596186686,
	               "semiMajorAxis": 0.0008615142317400584,
	               "apoapsisDistance": 0.000867964574434163,
	               "argOfPeriapsis": 42.07242499365851,
	               "epoch": 2456751.559027778,
	               "period": 0.2989390839343521,
	               "meanAnomalyAtEpoch": 359.2884145523838,
	               "ascendingNode": 337.5068666187264,
	               "eccentricity": 0.007487215482298559,
	               "inclination": 2.219107948344326
                }, 
                "momentOfInertia": 0, 
                "symbol": null, 
                "customOrbit": null, 
                "radius": 20, 
                "ring": null, 
                "id": 1000716, 
                "meanDensity": 0, 
                "surfaceGravity": 0, 
                "lightEmitting": false, 
                "name": "Metis", 
                "flattening": 0.0, 
                "customRotation": null, 
                "type": "Moon",
                "mass" : 3.6E+16
            }
        ], 
        "customRotation": "com.apoapsys.astronomy.rotation.IAUJupiterRotation", 
        "type": "Planet"
    }, 
    {
        "escapeVelocity": 35.5, 
        "elements": {
            "argOfPeriapsis": 339.3040452823529, 
            "period": 10764.12705436752, 
            "ascendingNode": 113.6388341229416, 
            "eccentricity": 0.05470235439090843, 
            "periapsisDistance": 9.019799253576863, 
            "timeOfPeriapsis": 2452828.548824044, 
            "semiMajorAxis": 9.541755758595018, 
            "apoapsisDistance": 10.06371226361317, 
            "meanAnomalyAtEpoch": 130.7588545020986, 
            "epoch": 2456738.284722222, 
            "inclination": 2.486579026771229
        }, 
        "momentOfInertia": 0.21, 
        "symbol": "\u2644", 
        "customOrbit": "com.apoapsys.astronomy.orbits.vsop87.SaturnVSOPOrbit", 
        "radius": 58232, 
        "ring": {
            "innerRadius": 74500, 
            "rotation": [
                90, 
                0, 
                0
            ], 
            "outterRadius": 140220
        }, 
        "id": 1000800, 
        "meanDensity": 0.687, 
        "surfaceGravity": 10.44, 
        "lightEmitting": false, 
        "name": "Saturn", 
        "flattening": 0.09796, 
        "mass" : 5.68319E+26,
        "siderealRotPeriod" : 0.44041667,
        "obliquity" : 26.73,
        "moons": [
            {
                "escapeVelocity": 0, 
                "elements": {
                    "argOfPeriapsis": 269.4182778556697, 
                    "period": 0.9474736872326431, 
                    "ascendingNode": 168.5614777889392, 
                    "eccentricity": 0.02179177506589589, 
                    "periapsisDistance": 0.001216481433678579, 
                    "timeOfPeriapsis": 2456738.196772882, 
                    "semiMajorAxis": 0.001243581277146311, 
                    "apoapsisDistance": 0.001270681120614043, 
                    "meanAnomalyAtEpoch": 33.4170361134456, 
                    "epoch": 2456738.284722222, 
                    "inclination": 29.55007401396031
                }, 
                "momentOfInertia": 0, 
                "symbol": null, 
                "customOrbit": null, 
                "radius": 198.8, 
                "ring": null, 
                "id": 1000801, 
                "meanDensity": 0, 
                "surfaceGravity": 0, 
                "lightEmitting": false, 
                "name": "Mimas", 
                "flattening": 0.0, 
                "customRotation": null, 
                "type": "Moon",
                "mass" : 3.75E+19
            }, 
            {
                "escapeVelocity": 0, 
                "elements": {
                    "argOfPeriapsis": 106.2297979110464, 
                    "period": 1.374540496424438, 
                    "ascendingNode": 169.5011548347208, 
                    "eccentricity": 0.004664575910736299, 
                    "periapsisDistance": 0.001586246127512307, 
                    "timeOfPeriapsis": 2456737.98841564, 
                    "semiMajorAxis": 0.001593679968703746, 
                    "apoapsisDistance": 0.001601113809895185, 
                    "meanAnomalyAtEpoch": 77.78626390105227, 
                    "epoch": 2456738.285416667, 
                    "inclination": 28.05484851296333
                }, 
                "momentOfInertia": 0, 
                "symbol": null, 
                "customOrbit": null, 
                "radius": 252.3, 
                "ring": null, 
                "id": 1000802, 
                "meanDensity": 0, 
                "surfaceGravity": 0, 
                "lightEmitting": false, 
                "name": "Enceladus", 
                "flattening": 0.0, 
                "customRotation": null, 
                "type": "Moon",
                "mass" : 10.805E+19
            }, 
            {
                "escapeVelocity": 0, 
                "elements": {
                    "argOfPeriapsis": 148.4390755159219, 
                    "period": 1.891650330152852, 
                    "ascendingNode": 167.2110113236183, 
                    "eccentricity": 0.001118716006542073, 
                    "periapsisDistance": 0.001969566582150388, 
                    "timeOfPeriapsis": 2456738.3279685555, 
                    "semiMajorAxis": 0.00197177243553528, 
                    "apoapsisDistance": 0.001973978288920172, 
                    "meanAnomalyAtEpoch": 351.9019495306854, 
                    "epoch": 2456738.285416667, 
                    "inclination": 28.11489094080711
                }, 
                "momentOfInertia": 0, 
                "symbol": null, 
                "customOrbit": null, 
                "radius": 536.3, 
                "ring": null, 
                "id": 1000803, 
                "meanDensity": 0, 
                "surfaceGravity": 0, 
                "lightEmitting": false, 
                "name": "Tethys", 
                "flattening": 0.0, 
                "customRotation": null, 
                "type": "Moon",
                "mass" : 61.76E+19
            }, 
            {
                "escapeVelocity": 0, 
                "elements": {
                    "argOfPeriapsis": 263.553445771027, 
                    "period": 2.740238104255806, 
                    "ascendingNode": 169.5403165366338, 
                    "eccentricity": 0.002481406726522299, 
                    "periapsisDistance": 0.002518118745473632, 
                    "timeOfPeriapsis": 2456737.8909691204, 
                    "semiMajorAxis": 0.002524382765849127, 
                    "apoapsisDistance": 0.002530646786224622, 
                    "meanAnomalyAtEpoch": 51.82072190524241, 
                    "epoch": 2456738.285416667, 
                    "inclination": 28.01491301645394
                }, 
                "momentOfInertia": 0, 
                "symbol": null, 
                "customOrbit": null, 
                "radius": 562.5, 
                "ring": null, 
                "id": 1000804, 
                "meanDensity": 0, 
                "surfaceGravity": 0, 
                "lightEmitting": false, 
                "name": "Dione", 
                "flattening": 0.0, 
                "customRotation": null, 
                "type": "Moon",
                "mass" : 109.572E+19
            }, 
            {
]